{
  "type": "FeatureCollection",
  "features": [
    {
      "type": "Feature",
      "properties": {
        "norad_id": 22490,
        "name": "SCD 1",
        "group": "resource",
        "lat": 13.183911030762589,
        "lon": 91.66267312039865,
        "alt_km": 756.84842456962,
        "timestamp": "2025-12-08T23:34:03.625822+00:00",
        "meta_object_name": "SCD 1",
        "meta_object_id": "1993-009B",
        "meta_epoch": "2025-12-08T15:21:15.134400",
        "meta_mean_motion": 14.45994939,
        "meta_eccentricity": 0.00417249,
        "meta_inclination": 24.9705,
        "meta_ra_of_asc_node": 303.9966,
        "meta_arg_of_pericenter": 281.4311,
        "meta_mean_anomaly": 241.0109,
        "meta_ephemeris_type": 0,
        "meta_classification_type": "U",
        "meta_norad_cat_id": 22490,
        "meta_element_set_no": 999,
        "meta_rev_at_epoch": 73350,
        "meta_bstar": 0.00019055094,
        "meta_mean_motion_dot": 8.83e-06,
        "meta_mean_motion_ddot": 0,
        "tle_line1": "1 22490U 93009B   25342.63975850  .00000883  00000+0  19055-3 0  9998",
        "tle_line2": "2 22490  24.9705 303.9966 0041724 281.4311 241.0109 14.45994939733502"
      },
      "geometry": {
        "type": "Point",
        "coordinates": [
          91.66267312039865,
          13.183911030762589
        ]
      }
    },
    {
      "type": "Feature",
      "properties": {
        "norad_id": 25397,
        "name": "TECHSAT 1B (GO-32)",
        "group": "resource",
        "lat": -8.960193807875383,
        "lon": -32.462144301745596,
        "alt_km": 814.1063165770211,
        "timestamp": "2025-12-08T23:34:03.625862+00:00",
        "meta_object_name": "TECHSAT 1B (GO-32)",
        "meta_object_id": "1998-043D",
        "meta_epoch": "2025-12-08T13:29:41.227872",
        "meta_mean_motion": 14.24375404,
        "meta_eccentricity": 0.00021596,
        "meta_inclination": 98.9915,
        "meta_ra_of_asc_node": 325.678,
        "meta_arg_of_pericenter": 63.912,
        "meta_mean_anomaly": 296.228,
        "meta_ephemeris_type": 0,
        "meta_classification_type": "U",
        "meta_norad_cat_id": 25397,
        "meta_element_set_no": 999,
        "meta_rev_at_epoch": 42419,
        "meta_bstar": 0.00010994645,
        "meta_mean_motion_dot": 2.08e-06,
        "meta_mean_motion_ddot": 0,
        "tle_line1": "1 25397U 98043D   25342.56228273  .00000208  00000+0  10995-3 0  9997",
        "tle_line2": "2 25397  98.9915 325.6780 0002159  63.9120 296.2280 14.24375404424191"
      },
      "geometry": {
        "type": "Point",
        "coordinates": [
          -32.462144301745596,
          -8.960193807875383
        ]
      }
    },
    {
      "type": "Feature",
      "properties": {
        "norad_id": 25504,
        "name": "SCD 2",
        "group": "resource",
        "lat": -3.086519272443716,
        "lon": -8.28380449516764,
        "alt_km": 738.2258493589379,
        "timestamp": "2025-12-08T23:34:03.625877+00:00",
        "meta_object_name": "SCD 2",
        "meta_object_id": "1998-060A",
        "meta_epoch": "2025-12-08T12:55:08.690592",
        "meta_mean_motion": 14.45419994,
        "meta_eccentricity": 0.00165885,
        "meta_inclination": 24.9931,
        "meta_ra_of_asc_node": 167.8038,
        "meta_arg_of_pericenter": 268.6442,
        "meta_mean_anomaly": 125.3794,
        "meta_ephemeris_type": 0,
        "meta_classification_type": "U",
        "meta_norad_cat_id": 25504,
        "meta_element_set_no": 999,
        "meta_rev_at_epoch": 43271,
        "meta_bstar": 0.00013887878,
        "meta_mean_motion_dot": 6.8e-06,
        "meta_mean_motion_ddot": 0,
        "tle_line1": "1 25504U 98060A   25342.53829503  .00000680  00000+0  13888-3 0  9994",
        "tle_line2": "2 25504  24.9931 167.8038 0016588 268.6442 125.3794 14.45419994432717"
      },
      "geometry": {
        "type": "Point",
        "coordinates": [
          -8.28380449516764,
          -3.086519272443716
        ]
      }
    },
    {
      "type": "Feature",
      "properties": {
        "norad_id": 25757,
        "name": "DLR-TUBSAT",
        "group": "resource",
        "lat": -11.428971206828603,
        "lon": 145.61496846542295,
        "alt_km": 712.8432202744261,
        "timestamp": "2025-12-08T23:34:03.625890+00:00",
        "meta_object_name": "DLR-TUBSAT",
        "meta_object_id": "1999-029B",
        "meta_epoch": "2025-12-08T12:46:03.957600",
        "meta_mean_motion": 14.52355333,
        "meta_eccentricity": 0.00136612,
        "meta_inclination": 98.6559,
        "meta_ra_of_asc_node": 326.9159,
        "meta_arg_of_pericenter": 205.9399,
        "meta_mean_anomaly": 154.1112,
        "meta_ephemeris_type": 0,
        "meta_classification_type": "U",
        "meta_norad_cat_id": 25757,
        "meta_element_set_no": 999,
        "meta_rev_at_epoch": 40557,
        "meta_bstar": 8.6189874e-05,
        "meta_mean_motion_dot": 3.03e-06,
        "meta_mean_motion_ddot": 0,
        "tle_line1": "1 25757U 99029B   25342.53199025  .00000303  00000+0  86190-4 0  9998",
        "tle_line2": "2 25757  98.6559 326.9159 0013661 205.9399 154.1112 14.52355333405579"
      },
      "geometry": {
        "type": "Point",
        "coordinates": [
          145.61496846542295,
          -11.428971206828603
        ]
      }
    },
    {
      "type": "Feature",
      "properties": {
        "norad_id": 25994,
        "name": "TERRA",
        "group": "resource",
        "lat": 39.89722055974915,
        "lon": -138.46452327406536,
        "alt_km": 684.9799343333498,
        "timestamp": "2025-12-08T23:34:03.625903+00:00",
        "meta_object_name": "TERRA",
        "meta_object_id": "1999-068A",
        "meta_epoch": "2025-12-08T15:14:35.943936",
        "meta_mean_motion": 14.60946141,
        "meta_eccentricity": 0.00035293,
        "meta_inclination": 97.9754,
        "meta_ra_of_asc_node": 34.4702,
        "meta_arg_of_pericenter": 106.0195,
        "meta_mean_anomaly": 10.3787,
        "meta_ephemeris_type": 0,
        "meta_classification_type": "U",
        "meta_norad_cat_id": 25994,
        "meta_element_set_no": 999,
        "meta_rev_at_epoch": 38178,
        "meta_bstar": 0.0002175042,
        "meta_mean_motion_dot": 1.021e-05,
        "meta_mean_motion_ddot": 0,
        "tle_line1": "1 25994U 99068A   25342.63513824  .00001021  00000+0  21750-3 0  9990",
        "tle_line2": "2 25994  97.9754  34.4702 0003529 106.0195  10.3787 14.60946141381782"
      },
      "geometry": {
        "type": "Point",
        "coordinates": [
          -138.46452327406536,
          39.89722055974915
        ]
      }
    },
    {
      "type": "Feature",
      "properties": {
        "norad_id": 27004,
        "name": "MAROC-TUBSAT",
        "group": "resource",
        "lat": -79.93023129128235,
        "lon": -132.1384534682107,
        "alt_km": 991.8830083413277,
        "timestamp": "2025-12-08T23:34:03.625916+00:00",
        "meta_object_name": "MAROC-TUBSAT",
        "meta_object_id": "2001-056D",
        "meta_epoch": "2025-12-08T10:07:07.157568",
        "meta_mean_motion": 13.70252579,
        "meta_eccentricity": 0.00190852,
        "meta_inclination": 99.7912,
        "meta_ra_of_asc_node": 150.791,
        "meta_arg_of_pericenter": 271.6165,
        "meta_mean_anomaly": 117.8718,
        "meta_ephemeris_type": 0,
        "meta_classification_type": "U",
        "meta_norad_cat_id": 27004,
        "meta_element_set_no": 999,
        "meta_rev_at_epoch": 20006,
        "meta_bstar": 4.1253752e-05,
        "meta_mean_motion_dot": -1e-07,
        "meta_mean_motion_ddot": 0,
        "tle_line1": "1 27004U 01056D   25342.42161062 -.00000010  00000+0  41254-4 0  9994",
        "tle_line2": "2 27004  99.7912 150.7910 0019085 271.6165 117.8718 13.70252579200068"
      },
      "geometry": {
        "type": "Point",
        "coordinates": [
          -132.1384534682107,
          -79.93023129128235
        ]
      }
    },
    {
      "type": "Feature",
      "properties": {
        "norad_id": 27424,
        "name": "AQUA",
        "group": "resource",
        "lat": 2.0671998273240826,
        "lon": -56.50564806020785,
        "alt_km": 690.3185049227313,
        "timestamp": "2025-12-08T23:34:03.625928+00:00",
        "meta_object_name": "AQUA",
        "meta_object_id": "2002-022A",
        "meta_epoch": "2025-12-08T16:07:58.804032",
        "meta_mean_motion": 14.61795515,
        "meta_eccentricity": 9.368e-05,
        "meta_inclination": 98.4032,
        "meta_ra_of_asc_node": 303.4853,
        "meta_arg_of_pericenter": 113.8107,
        "meta_mean_anomaly": 59.1753,
        "meta_ephemeris_type": 0,
        "meta_classification_type": "U",
        "meta_norad_cat_id": 27424,
        "meta_element_set_no": 999,
        "meta_rev_at_epoch": 25543,
        "meta_bstar": 0.0004446881,
        "meta_mean_motion_dot": 2.171e-05,
        "meta_mean_motion_ddot": 0,
        "tle_line1": "1 27424U 02022A   25342.67220838  .00002171  00000+0  44469-3 0  9997",
        "tle_line2": "2 27424  98.4032 303.4853 0000936 113.8107  59.1753 14.61795515255435"
      },
      "geometry": {
        "type": "Point",
        "coordinates": [
          -56.50564806020785,
          2.0671998273240826
        ]
      }
    }
  ]
}